NORAD_CAT_ID,OBJECT_NAME,OBJECT_TYPE,EPOCH,MEAN_MOTION,ECCENTRICITY,INCLINATION,RA_OF_ASC_NODE,ARG_OF_PERICENTER,MEAN_ANOMALY,BSTAR,MEAN_MOTION_DOT,MEAN_MOTION_DDOT,TLE_LINE0,TLE_LINE1,TLE_LINE2,SEMIMAJOR_AXIS,PERIOD,APOGEE,PERIGEE,DECAYED
49428.0,STARLINK-3121,PAYLOAD,2024-06-04 12:40:34,15.08851121,0.0001431,53.2168,236.2995,99.0933,261.0221,0.00069874,0.00010853,0.0,0 STARLINK-3121,1 49428U 21104W   24156.52818119  .00010853  00000-0  69874-3 0  9992,2 49428  53.2168 236.2995 0001431  99.0933 261.0221 15.08851121142612,6917.846,95.437,540.701,538.721,0.0
49428.0,STARLINK-3121,PAYLOAD,2024-06-04 22:12:53,15.08871006,0.0001144,53.2148,234.5129,70.339,289.7725,0.0016485,0.00026068,0.0,0 STARLINK-3121,1 49428U 21104W   24156.92561717  .00026068  00000-0  16485-2 0  9999,2 49428  53.2148 234.5129 0001144  70.3390 289.7725 15.08871006141608,6917.786,95.436,540.442,538.859,0.0
49428.0,STARLINK-3121,PAYLOAD,2024-06-05 10:55:59,15.08820402,0.0001256,53.2146,232.1354,75.6765,284.4367,0.00066395,0.00010289,0.0,0 STARLINK-3121,1 49428U 21104W   24157.45554806  .00010289  00000-0  66395-3 0  9993,2 49428  53.2146 232.1354 0001256  75.6765 284.4367 15.08820402142753,6917.94,95.439,540.674,538.936,0.0
49428.0,STARLINK-3121,PAYLOAD,2024-06-05 22:03:41,15.08841127,0.0001336,53.2153,230.0534,80.0124,280.1019,0.0010867,0.0001705,0.0,0 STARLINK-3121,1 49428U 21104W   24157.91922994  .00017050  00000-0  10867-2 0  9996,2 49428  53.2153 230.0534 0001336  80.0124 280.1019 15.08841127141759,6917.877,95.437,540.666,538.818,0.0
49428.0,STARLINK-3121,PAYLOAD,2024-06-06 12:22:09,15.08848592,0.0001348,53.2153,227.3786,77.9875,282.1268,0.00090783,0.00014193,0.0,0 STARLINK-3121,1 49428U 21104W   24158.51539138  .00014193  00000-0  90783-3 0  9998,2 49428  53.2153 227.3786 0001348  77.9875 282.1268 15.08848592142918,6917.854,95.437,540.652,538.787,0.0
49428.0,STARLINK-3121,PAYLOAD,2024-06-07 09:02:10,15.08848148,0.0001614,53.2164,223.5113,74.2034,285.9136,0.00057924,8.945e-05,0.0,0 STARLINK-3121,1 49428U 21104W   24159.37651245  .00008945  00000-0  57924-3 0  9995,2 49428  53.2164 223.5113 0001614  74.2034 285.9136 15.08848148143042,6917.855,95.437,540.837,538.604,0.0
49428.0,STARLINK-3121,PAYLOAD,2024-06-07 21:45:15,15.08855352,0.0001278,53.2148,221.134,81.4017,278.712,0.0006675,0.00010356,0.0,0 STARLINK-3121,1 49428U 21104W   24159.90642802  .00010356  00000-0  66750-3 0  9999,2 49428  53.2148 221.1340 0001278  81.4017 278.7120 15.08855352142055,6917.833,95.437,540.583,538.814,0.0
49428.0,STARLINK-3121,PAYLOAD,2024-06-08 13:39:06,15.08855116,0.0001574,53.2167,218.1577,97.6807,262.4363,0.00033289,5.016e-05,0.0,0 STARLINK-3121,1 49428U 21104W   24160.56882380  .00005016  00000-0  33289-3 0  9998,2 49428  53.2167 218.1577 0001574  97.6807 262.4363 15.08855116142157,6917.834,95.437,540.788,538.61,0.0
49428.0,STARLINK-3121,PAYLOAD,2024-06-09 10:19:07,15.0883545,0.0001453,53.2163,214.2892,101.3715,258.744,-4.7933e-05,-1.051e-05,0.0,0 STARLINK-3121,1 49428U 21104W   24161.42994962 -.00001051  00000-0 -47933-4 0  9993,2 49428  53.2163 214.2892 0001453 101.3715 258.7440 15.08835450143353,6917.894,95.438,540.764,538.754,0.0
49428.0,STARLINK-3121,PAYLOAD,2024-06-09 13:29:54,15.08829436,0.000148,53.2167,213.6963,102.1493,257.9665,1.0375e-06,-2.71e-06,0.0,0 STARLINK-3121,1 49428U 21104W   24161.56243295 -.00000271  00000-0  10375-5 0  9997,2 49428  53.2167 213.6963 0001480 102.1493 257.9665 15.08829436142302,6917.913,95.438,540.802,538.754,0.0
49428.0,STARLINK-3121,PAYLOAD,2024-06-10 10:09:54,15.08839884,0.0001323,53.2167,209.8327,81.8374,278.2768,1.3465e-05,-7.4e-07,0.0,0 STARLINK-3121,1 49428U 21104W   24162.42355053 -.00000074  00000-0  13465-4 0  9992,2 49428  53.2167 209.8327 0001323  81.8374 278.2768 15.08839884142432,6917.881,95.438,540.661,538.831,0.0
49428.0,STARLINK-3121,PAYLOAD,2024-06-11 02:03:46,15.08838334,0.0001319,53.2167,206.8601,74.918,285.1958,8.7875e-05,1.111e-05,0.0,0 STARLINK-3121,1 49428U 21104W   24163.08594981  .00001111  00000-0  87875-4 0  9998,2 49428  53.2167 206.8601 0001319  74.9180 285.1958 15.08838334143604,6917.885,95.438,540.663,538.838,0.0
49428.0,STARLINK-3121,PAYLOAD,2024-06-11 10:00:41,15.08834778,0.0001335,53.2165,205.3724,72.1457,287.9681,0.00011904,1.607e-05,0.0,0 STARLINK-3121,1 49428U 21104W   24163.41715270  .00001607  00000-0  11904-3 0  9990,2 49428  53.2165 205.3724 0001335  72.1457 287.9681 15.08834778142584,6917.896,95.438,540.685,538.838,0.0
49428.0,STARLINK-3121,PAYLOAD,2024-06-12 06:40:43,15.08829032,0.0001567,53.2186,201.5085,86.222,273.8951,1.4955e-06,-2.64e-06,0.0,0 STARLINK-3121,1 49428U 21104W   24164.27828309 -.00000264  00000-0  14955-5 0  9993,2 49428  53.2186 201.5085 0001567  86.2220 273.8951 15.08829032142712,6917.914,95.438,540.863,538.695,0.0
49428.0,STARLINK-3121,PAYLOAD,2024-06-12 11:26:53,15.08829296,0.0001545,53.2184,200.6168,85.9654,274.1515,-1.1215e-05,-4.66e-06,0.0,0 STARLINK-3121,1 49428U 21104W   24164.47700366 -.00000466  00000-0 -11215-4 0  9997,2 49428  53.2184 200.6168 0001545  85.9654 274.1515 15.08829296143819,6917.913,95.438,540.847,538.709,0.0
49428.0,STARLINK-3121,PAYLOAD,2024-06-13 01:45:20,15.08837229,0.0001361,53.2167,197.9375,81.1515,278.9632,3.7762e-05,3.13e-06,0.0,0 STARLINK-3121,1 49428U 21104W   24165.07315872  .00000313  00000-0  37762-4 0  9992,2 49428  53.2167 197.9375 0001361  81.1515 278.9632 15.08837229143905,6917.889,95.438,540.695,538.812,0.0
49428.0,STARLINK-3121,PAYLOAD,2024-06-13 09:42:16,15.08841422,0.0001512,53.218,196.4528,84.6607,275.4558,7.9131e-05,9.72e-06,0.0,0 STARLINK-3121,1 49428U 21104W   24165.40435525  .00000972  00000-0  79131-4 0  9994,2 49428  53.2180 196.4528 0001512  84.6607 275.4558 15.08841422142887,6917.876,95.437,540.787,538.695,0.0
49428.0,STARLINK-3121,PAYLOAD,2024-06-13 19:14:34,15.08845454,0.0001554,53.2179,194.6683,79.2412,280.8755,7.6116e-05,9.24e-06,0.0,0 STARLINK-3121,1 49428U 21104W   24165.80179209  .00000924  00000-0  76116-4 0  9999,2 49428  53.2179 194.6683 0001554  79.2412 280.8755 15.08845454144012,6917.864,95.437,540.804,538.654,0.0
49428.0,STARLINK-3121,PAYLOAD,2024-06-14 11:08:26,15.08840759,0.0001324,53.2165,191.6938,84.43,275.6843,0.00010932,1.452e-05,0.0,0 STARLINK-3121,1 49428U 21104W   24166.46419420  .00001452  00000-0  10932-3 0  9994,2 49428  53.2165 191.6938 0001324  84.4300 275.6843 15.08840759143041,6917.878,95.438,540.659,538.827,0.0
49428.0,STARLINK-3121,PAYLOAD,2024-06-14 19:05:21,15.0884307,0.0001334,53.2163,190.2072,83.7358,276.3786,9.7716e-05,1.268e-05,0.0,0 STARLINK-3121,1 49428U 21104W   24166.79539284  .00001268  00000-0  97716-4 0  9992,2 49428  53.2163 190.2072 0001334  83.7358 276.3786 15.08843070143097,6917.871,95.437,540.659,538.813,0.0
49428.0,STARLINK-3121,PAYLOAD,2024-06-15 10:59:13,15.08845272,0.0001338,53.2167,187.233,87.3201,272.7944,2.0734e-05,4.2e-07,0.0,0 STARLINK-3121,1 49428U 21104W   24167.45779178  .00000042  00000-0  20734-4 0  9999,2 49428  53.2167 187.2330 0001338  87.3201 272.7944 15.08845272143198,6917.864,95.437,540.655,538.804,0.0
49428.0,STARLINK-3121,PAYLOAD,2024-06-15 18:56:08,15.08846063,0.0001338,53.2168,185.7461,87.6204,272.4942,3.0441e-05,1.97e-06,0.0,0 STARLINK-3121,1 49428U 21104W   24167.78898981  .00000197  00000-0  30441-4 0  9996,2 49428  53.2168 185.7461 0001338  87.6204 272.4942 15.08846063143243,6917.862,95.437,540.652,538.801,0.0
49428.0,STARLINK-3121,PAYLOAD,2024-06-16 07:39:13,15.08841512,0.000137,53.2169,183.3672,89.2243,270.8906,2.0777e-05,4.3e-07,0.0,0 STARLINK-3121,1 49428U 21104W   24168.31891179  .00000043  00000-0  20777-4 0  9999,2 49428  53.2169 183.3672 0001370  89.2243 270.8906 15.08841512143324,6917.876,95.437,540.689,538.793,0.0
49428.0,STARLINK-3121,PAYLOAD,2024-06-17 10:40:47,15.08835795,0.0001365,53.2169,178.3124,88.8772,271.2376,-1.2294e-05,-4.84e-06,0.0,0 STARLINK-3121,1 49428U 21104W   24169.44499785 -.00000484  00000-0 -12294-4 0  9997,2 49428  53.2169 178.3124 0001365  88.8772 271.2376 15.08835795143496,6917.893,95.438,540.703,538.814,0.0
49428.0,STARLINK-3121,PAYLOAD,2024-06-18 07:20:48,15.08837445,0.0001311,53.2164,174.4468,87.1809,272.9334,3.6509e-05,2.93e-06,0.0,0 STARLINK-3121,1 49428U 21104W   24170.30611627  .00000293  00000-0  36509-4 0  9996,2 49428  53.2164 174.4468 0001311  87.1809 272.9334 15.08837445143624,6917.888,95.438,540.66,538.846,0.0
49428.0,STARLINK-3121,PAYLOAD,2024-06-18 16:53:07,15.08838331,0.0001299,53.2163,172.6625,86.1641,273.95,4.7123e-05,4.62e-06,0.0,0 STARLINK-3121,1 49428U 21104W   24170.70355584  .00000462  00000-0  47123-4 0  9999,2 49428  53.2163 172.6625 0001299  86.1641 273.9500 15.08838331144752,6917.885,95.438,540.649,538.852,0.0
49428.0,STARLINK-3121,PAYLOAD,2024-06-19 05:36:12,15.08830576,0.0001321,53.2167,170.2846,89.6283,270.486,3.8245e-05,3.21e-06,0.0,0 STARLINK-3121,1 49428U 21104W   24171.23348278  .00000321  00000-0  38245-4 0  9999,2 49428  53.2167 170.2846 0001321  89.6283 270.4860 15.08830576144834,6917.909,95.438,540.688,538.86,0.0
49428.0,STARLINK-3121,PAYLOAD,2024-06-19 08:46:59,15.08832903,0.0001344,53.2168,169.6898,89.4176,270.697,5.6773e-05,6.16e-06,0.0,0 STARLINK-3121,1 49428U 21104W   24171.36596143  .00000616  00000-0  56773-4 0  9992,2 49428  53.2168 169.6898 0001344  89.4176 270.6970 15.08832903143781,6917.902,95.438,540.697,538.837,0.0
49428.0,STARLINK-3121,PAYLOAD,2024-06-19 16:43:54,15.08835458,0.0001359,53.2169,168.2032,89.6588,270.456,6.3643e-05,7.25e-06,0.0,0 STARLINK-3121,1 49428U 21104W   24171.69716069  .00000725  00000-0  63643-4 0  9994,2 49428  53.2169 168.2032 0001359  89.6588 270.4560 15.08835458143839,6917.894,95.438,540.699,538.819,0.0
49428.0,STARLINK-3121,PAYLOAD,2024-06-20 10:13:09,15.0883929,0.0001357,53.2166,164.9319,89.4293,270.6855,2.7525e-05,1.5e-06,0.0,0 STARLINK-3121,1 49428U 21104W   24172.42580090  .00000150  00000-0  27525-4 0  9990,2 49428  53.2166 164.9319 0001357  89.4293 270.6855 15.08839290143945,6917.883,95.438,540.686,538.809,0.0
